[{"OBJECT_NAME":"STARLINK-5702","OBJECT_ID":"2023-020BF","EPOCH":"2026-03-09T03:57:53.551296","MEAN_MOTION":15.02529652,"ECCENTRICITY":0.00015279,"INCLINATION":43.0062,"RA_OF_ASC_NODE":354.2381,"ARG_OF_PERICENTER":277.605,"MEAN_ANOMALY":82.4619,"EPHEMERIS_TYPE":0,"CLASSIFICATION_TYPE":"U","NORAD_CAT_ID":55622,"ELEMENT_SET_NO":999,"REV_AT_EPOCH":16899,"BSTAR":-3.7877432e-5,"MEAN_MOTION_DOT":-7.15e-6,"MEAN_MOTION_DDOT":0},{"OBJECT_NAME":"FALCON 9 R\/B","OBJECT_ID":"2021-049B","EPOCH":"2026-03-09T14:17:17.027808","MEAN_MOTION":5.42037855,"ECCENTRICITY":0.5193116,"INCLINATION":27.0762,"RA_OF_ASC_NODE":322.3477,"ARG_OF_PERICENTER":10.0223,"MEAN_ANOMALY":357.3104,"EPHEMERIS_TYPE":0,"CLASSIFICATION_TYPE":"U","NORAD_CAT_ID":48839,"ELEMENT_SET_NO":999,"REV_AT_EPOCH":8152,"BSTAR":0.0015003242,"MEAN_MOTION_DOT":0.00069003,"MEAN_MOTION_DDOT":0}]
